start=new Date('2022-04-13T00:00:00.000Z').valueOf();
sats=[{"BSTAR":"0.00017229000000","MEAN_ANOMALY":"291.8322","INCLINATION":"53.0530","COUNTRY_CODE":"US","REF_FRAME":"TEME","NORAD_CAT_ID":"46134","ELEMENT_SET_NO":"999","RA_OF_ASC_NODE":"202.9755","MEAN_MOTION_DOT":"0.00002284","MEAN_MOTION":"15.06374294","ARG_OF_PERICENTER":"68.2827","EPOCH":"2022-04-12T14:51:15.078528","TLE_LINE2":"2 46134  53.0530 202.9755 0001512  68.2827 291.8322 15.06374294 91534","OBJECT_NAME":"STARLINK-1638","LAUNCH_DATE":"2020-08-18","GP_ID":"201091662","RCS_SIZE":"LARGE","CLASSIFICATION_TYPE":"U","ECCENTRICITY":"0.00015120","CENTER_NAME":"EARTH","TIME_SYSTEM":"UTC","MEAN_MOTION_DDOT":"0.0000000000000","SEMIMAJOR_AXIS":"6925.427","REV_AT_EPOCH":"9153","APOAPSIS":"548.339","EPHEMERIS_TYPE":"0","SITE":"AFETR","MEAN_ELEMENT_THEORY":"SGP4","FILE":"3398892","PERIOD":"95.594","OBJECT_TYPE":"PAYLOAD","TLE_LINE1":"1 46134U 20057T   22102.61892452  .00002284  00000-0  17229-3 0  9996","DECAY_DATE":null,"OBJECT_ID":"2020-057T","PERIAPSIS":"546.245"},{"BSTAR":"-0.00039966000000","MEAN_ANOMALY":"308.3948","INCLINATION":"53.0547","COUNTRY_CODE":"US","REF_FRAME":"TEME","NORAD_CAT_ID":"46135","ELEMENT_SET_NO":"999","RA_OF_ASC_NODE":"202.6217","MEAN_MOTION_DOT":"-0.00006225","MEAN_MOTION":"15.06372246","ARG_OF_PERICENTER":"51.7177","EPOCH":"2022-04-12T16:48:01.223424","TLE_LINE2":"2 46135  53.0547 202.6217 0001509  51.7177 308.3948 15.06372246 91548","OBJECT_NAME":"STARLINK-1639","LAUNCH_DATE":"2020-08-18","GP_ID":"201091412","RCS_SIZE":"LARGE","CLASSIFICATION_TYPE":"U","ECCENTRICITY":"0.00015090","CENTER_NAME":"EARTH","TIME_SYSTEM":"UTC","MEAN_MOTION_DDOT":"0.0000000000000","SEMIMAJOR_AXIS":"6925.434","REV_AT_EPOCH":"9154","APOAPSIS":"548.344","MEAN_ELEMENT_THEORY":"SGP4","SITE":"AFETR","EPHEMERIS_TYPE":"0","FILE":"3398892","PERIOD":"95.594","OBJECT_TYPE":"PAYLOAD","DECAY_DATE":null,"TLE_LINE1":"1 46135U 20057U   22102.70001416 -.00006225  00000-0 -39966-3 0  9992","PERIAPSIS":"546.254","OBJECT_ID":"2020-057U"},{"EPOCH":"2022-04-12T16:22:48.303264","MEAN_MOTION":"15.06380279","ARG_OF_PERICENTER":"50.3860","GP_ID":"201090160","RCS_SIZE":"LARGE","TLE_LINE2":"2 46136  53.0528 232.6965 0001721  50.3860 309.7281 15.06380279 91125","OBJECT_NAME":"STARLINK-1643","LAUNCH_DATE":"2020-08-18","COUNTRY_CODE":"US","BSTAR":"0.00026334000000","MEAN_ANOMALY":"309.7281","INCLINATION":"53.0528","RA_OF_ASC_NODE":"232.6965","MEAN_MOTION_DOT":"0.00003641","REF_FRAME":"TEME","ELEMENT_SET_NO":"999","NORAD_CAT_ID":"46136","PERIOD":"95.593","OBJECT_TYPE":"PAYLOAD","FILE":"3398892","OBJECT_ID":"2020-057V","TLE_LINE1":"1 46136U 20057V   22102.68250351  .00003641  00000-0  26334-3 0  9996","DECAY_DATE":null,"PERIAPSIS":"546.082","ECCENTRICITY":"0.00017210","CENTER_NAME":"EARTH","TIME_SYSTEM":"UTC","CLASSIFICATION_TYPE":"U","REV_AT_EPOCH":"9112","SEMIMAJOR_AXIS":"6925.409","APOAPSIS":"548.466","MEAN_ELEMENT_THEORY":"SGP4","SITE":"AFETR","EPHEMERIS_TYPE":"0","MEAN_MOTION_DDOT":"0.0000000000000"},{"ARG_OF_PERICENTER":"41.3363","MEAN_MOTION":"15.06386893","EPOCH":"2022-04-12T20:01:45.526080","OBJECT_NAME":"STARLINK-1586","LAUNCH_DATE":"2020-08-18","TLE_LINE2":"2 46137  53.0563 222.0203 0001975  41.3363 318.7775 15.06386893 91285","RCS_SIZE":"LARGE","GP_ID":"201090911","INCLINATION":"53.0563","MEAN_ANOMALY":"318.7775","BSTAR":"-0.00003375500000","COUNTRY_CODE":"US","NORAD_CAT_ID":"46137","ELEMENT_SET_NO":"999","REF_FRAME":"TEME","MEAN_MOTION_DOT":"-0.00000784","RA_OF_ASC_NODE":"222.0203","FILE":"3398892","OBJECT_TYPE":"PAYLOAD","PERIOD":"95.593","TLE_LINE1":"1 46137U 20057W   22102.83455470 -.00000784  00000-0 -33755-4 0  9996","OBJECT_ID":"2020-057W","DECAY_DATE":null,"PERIAPSIS":"545.886","CLASSIFICATION_TYPE":"U","TIME_SYSTEM":"UTC","CENTER_NAME":"EARTH","ECCENTRICITY":"0.00019750","MEAN_MOTION_DDOT":"0.0000000000000","SITE":"AFETR","MEAN_ELEMENT_THEORY":"SGP4","EPHEMERIS_TYPE":"0","APOAPSIS":"548.621","REV_AT_EPOCH":"9128","SEMIMAJOR_AXIS":"6925.389"},{"MEAN_MOTION_DDOT":"0.0000000000000","SEMIMAJOR_AXIS":"6925.380","REV_AT_EPOCH":"9165","APOAPSIS":"548.596","MEAN_ELEMENT_THEORY":"SGP4","SITE":"AFETR","EPHEMERIS_TYPE":"0","CLASSIFICATION_TYPE":"U","ECCENTRICITY":"0.00019520","CENTER_NAME":"EARTH","TIME_SYSTEM":"UTC","DECAY_DATE":null,"TLE_LINE1":"1 46138U 20057X   22102.76636115 -.00001639  00000-0 -91165-4 0  9995","PERIAPSIS":"545.893","OBJECT_ID":"2020-057X","FILE":"3398549","PERIOD":"95.593","OBJECT_TYPE":"PAYLOAD","REF_FRAME":"TEME","NORAD_CAT_ID":"46138","ELEMENT_SET_NO":"999","RA_OF_ASC_NODE":"242.3227","MEAN_MOTION_DOT":"-0.00001639","BSTAR":"-0.00009116500000","MEAN_ANOMALY":"313.3495","INCLINATION":"53.0551","COUNTRY_CODE":"US","TLE_LINE2":"2 46138  53.0551 242.3227 0001952  46.7657 313.3495 15.06389878 91651","LAUNCH_DATE":"2020-08-18","OBJECT_NAME":"STARLINK-1590","GP_ID":"201063700","RCS_SIZE":"LARGE","MEAN_MOTION":"15.06389878","ARG_OF_PERICENTER":"46.7657","EPOCH":"2022-04-12T18:23:33.603360"},{"TLE_LINE1":"1 46140U 20057Z   22102.79216943 -.00003025  00000-0 -18445-3 0  9994","DECAY_DATE":null,"OBJECT_ID":"2020-057Z","PERIAPSIS":"546.026","OBJECT_TYPE":"PAYLOAD","PERIOD":"95.594","FILE":"3398892","EPHEMERIS_TYPE":"0","SITE":"AFETR","MEAN_ELEMENT_THEORY":"SGP4","APOAPSIS":"548.604","SEMIMAJOR_AXIS":"6925.450","REV_AT_EPOCH":"9282","MEAN_MOTION_DDOT":"0.0000000000000","TIME_SYSTEM":"UTC","CENTER_NAME":"EARTH","ECCENTRICITY":"0.00018610","CLASSIFICATION_TYPE":"U","RCS_SIZE":"LARGE","GP_ID":"201091913","OBJECT_NAME":"STARLINK-1594","LAUNCH_DATE":"2020-08-18","TLE_LINE2":"2 46140  53.0529 202.2025 0001861  40.2874 319.8252 15.06366979 92828","EPOCH":"2022-04-12T19:00:43.438752","ARG_OF_PERICENTER":"40.2874","MEAN_MOTION":"15.06366979","MEAN_MOTION_DOT":"-0.00003025","RA_OF_ASC_NODE":"202.2025","NORAD_CAT_ID":"46140","ELEMENT_SET_NO":"999","REF_FRAME":"TEME","COUNTRY_CODE":"US","INCLINATION":"53.0529","MEAN_ANOMALY":"319.8252","BSTAR":"-0.00018445000000"},{"COUNTRY_CODE":"US","BSTAR":"-0.00014970000000","MEAN_ANOMALY":"306.0811","INCLINATION":"53.0533","RA_OF_ASC_NODE":"202.6007","MEAN_MOTION_DOT":"-0.00002510","REF_FRAME":"TEME","NORAD_CAT_ID":"46141","ELEMENT_SET_NO":"999","EPOCH":"2022-04-12T16:53:20.061888","MEAN_MOTION":"15.06383287","ARG_OF_PERICENTER":"54.0327","GP_ID":"201090661","RCS_SIZE":"LARGE","TLE_LINE2":"2 46141  53.0533 202.6007 0001615  54.0327 306.0811 15.06383287 91549","LAUNCH_DATE":"2020-08-18","OBJECT_NAME":"STARLINK-1596","ECCENTRICITY":"0.00016150","CENTER_NAME":"EARTH","TIME_SYSTEM":"UTC","CLASSIFICATION_TYPE":"U","SEMIMAJOR_AXIS":"6925.400","REV_AT_EPOCH":"9154","APOAPSIS":"548.383","EPHEMERIS_TYPE":"0","SITE":"AFETR","MEAN_ELEMENT_THEORY":"SGP4","MEAN_MOTION_DDOT":"0.0000000000000","PERIOD":"95.593","OBJECT_TYPE":"PAYLOAD","FILE":"3398892","TLE_LINE1":"1 46141U 20057AA  22102.70370442 -.00002510  00000-0 -14970-3 0  9998","DECAY_DATE":null,"OBJECT_ID":"2020-057AA","PERIAPSIS":"546.146"},{"OBJECT_NAME":"STARLINK-1597","LAUNCH_DATE":"2020-08-18","TLE_LINE2":"2 46142  53.0549 241.9326 0001579  58.5078 301.6066 15.06397763 91006","RCS_SIZE":"LARGE","GP_ID":"201090411","ARG_OF_PERICENTER":"58.5078","MEAN_MOTION":"15.06397763","EPOCH":"2022-04-12T20:30:56.217312","ELEMENT_SET_NO":"999","NORAD_CAT_ID":"46142","REF_FRAME":"TEME","MEAN_MOTION_DOT":"-0.00001026","RA_OF_ASC_NODE":"241.9326","INCLINATION":"53.0549","MEAN_ANOMALY":"301.6066","BSTAR":"-0.00005001400000","COUNTRY_CODE":"US","DECAY_DATE":null,"TLE_LINE1":"1 46142U 20057AB  22102.85481733 -.00001026  00000-0 -50014-4 0  9992","OBJECT_ID":"2020-057AB","PERIAPSIS":"546.127","FILE":"3398892","OBJECT_TYPE":"PAYLOAD","PERIOD":"95.592","MEAN_MOTION_DDOT":"0.0000000000000","MEAN_ELEMENT_THEORY":"SGP4","SITE":"AFETR","EPHEMERIS_TYPE":"0","APOAPSIS":"548.314","REV_AT_EPOCH":"9100","SEMIMAJOR_AXIS":"6925.355","CLASSIFICATION_TYPE":"U","TIME_SYSTEM":"UTC","CENTER_NAME":"EARTH","ECCENTRICITY":"0.00015790"},{"COUNTRY_CODE":"US","MEAN_ANOMALY":"311.1944","INCLINATION":"53.0542","BSTAR":"0.00021198000000","MEAN_MOTION_DOT":"0.00002876","RA_OF_ASC_NODE":"222.6886","NORAD_CAT_ID":"46144","ELEMENT_SET_NO":"999","REF_FRAME":"TEME","EPOCH":"2022-04-12T16:29:26.018880","ARG_OF_PERICENTER":"48.9177","MEAN_MOTION":"15.06382509","RCS_SIZE":"LARGE","GP_ID":"201091663","LAUNCH_DATE":"2020-08-18","OBJECT_NAME":"STARLINK-1606","TLE_LINE2":"2 46144  53.0542 222.6886 0001541  48.9177 311.1944 15.06382509 79515","TIME_SYSTEM":"UTC","ECCENTRICITY":"0.00015410","CENTER_NAME":"EARTH","CLASSIFICATION_TYPE":"U","MEAN_ELEMENT_THEORY":"SGP4","SITE":"AFETR","EPHEMERIS_TYPE":"0","SEMIMAJOR_AXIS":"6925.402","REV_AT_EPOCH":"7951","APOAPSIS":"548.334","MEAN_MOTION_DDOT":"0.0000000000000","OBJECT_TYPE":"PAYLOAD","PERIOD":"95.593","FILE":"3398892","DECAY_DATE":null,"TLE_LINE1":"1 46144U 20057AD  22102.68710670  .00002876  00000-0  21198-3 0  9992","OBJECT_ID":"2020-057AD","PERIAPSIS":"546.200"},{"ELEMENT_SET_NO":"999","NORAD_CAT_ID":"46146","REF_FRAME":"TEME","MEAN_MOTION_DOT":"-0.00000724","RA_OF_ASC_NODE":"242.7600","MEAN_ANOMALY":"303.4586","INCLINATION":"53.0541","BSTAR":"-0.00002973900000","COUNTRY_CODE":"US","LAUNCH_DATE":"2020-08-18","OBJECT_NAME":"STARLINK-1608","TLE_LINE2":"2 46146  53.0541 242.7600 0001594  56.6555 303.4586 15.06393670 90988","RCS_SIZE":"LARGE","GP_ID":"201091413","ARG_OF_PERICENTER":"56.6555","MEAN_MOTION":"15.06393670","EPOCH":"2022-04-12T16:00:13.563360","MEAN_MOTION_DDOT":"0.0000000000000","EPHEMERIS_TYPE":"0","SITE":"AFETR","MEAN_ELEMENT_THEORY":"SGP4","SEMIMAJOR_AXIS":"6925.368","REV_AT_EPOCH":"9098","APOAPSIS":"548.337","CLASSIFICATION_TYPE":"U","TIME_SYSTEM":"UTC","ECCENTRICITY":"0.00015940","CENTER_NAME":"EARTH","OBJECT_ID":"2020-057AF","TLE_LINE1":"1 46146U 20057AF  22102.66682365 -.00000724  00000-0 -29739-4 0  9993","DECAY_DATE":null,"PERIAPSIS":"546.129","FILE":"3398892","OBJECT_TYPE":"PAYLOAD","PERIOD":"95.593"}];
